GLOBALSTAR M067         
1 32263U 07048A   25106.61104353 -.00000051  00000+0  34069-3 0  9993
2 32263  51.9721 216.1088 0001214 182.2284 191.0595 12.40670231801841
GLOBALSTAR M070         
1 32264U 07048B   25106.60595159 -.00000075  00000+0  16288-3 0  9990
2 32264  51.9761 316.1062 0000801  76.8380 318.0567 12.62316306805898
GLOBALSTAR M066         
1 32265U 07048C   25106.62911558 -.00000023  00000+0  58204-3 0  9995
2 32265  51.9637 203.7004 0002482 117.5253  21.2825 12.35100775807698
GLOBALSTAR M068         
1 32266U 07048D   25106.51467487 -.00000075  00000+0  15871-3 0  9991
2 32266  51.9860 130.2547 0000900   8.0170 148.0365 12.62821031809760
GLOBALSTAR M079         
1 37188U 10054A   25106.56177998 -.00000073  00000+0  16923-3 0  9997
2 37188  52.0057 327.3847 0000970 105.4500 270.6926 12.62273228668673
GLOBALSTAR M074         
1 37189U 10054B   25106.58891191 -.00000081  00000+0  12630-3 0  9998
2 37189  52.0033 326.6357 0000637  93.1354 284.9678 12.62274029669286
GLOBALSTAR M076         
1 37190U 10054C   25106.33179878 -.00000070  00000+0  18914-3 0  9993
2 37190  52.0047 327.5805 0000709 111.9730  59.4627 12.62261060668962
GLOBALSTAR M077         
1 37191U 10054D   25106.52176289 -.00000082  00000+0  12395-3 0  9998
2 37191  52.0070 283.8428 0000805 107.7892 265.7928 12.62273436669364
